OBJECT_NAME,OBJECT_ID,EPOCH,MEAN_MOTION,ECCENTRICITY,INCLINATION,RA_OF_ASC_NODE,ARG_OF_PERICENTER,MEAN_ANOMALY,EPHEMERIS_TYPE,CLASSIFICATION_TYPE,NORAD_CAT_ID,ELEMENT_SET_NO,REV_AT_EPOCH,BSTAR,MEAN_MOTION_DOT,MEAN_MOTION_DDOT
BEIDOU-3S IGSO-1S (C31),2015-019A,2026-07-22T20:41:06.522720,1.00291059,.00386968,49.1249,295.0310,195.6676,212.2841,0,U,40549,999,4143,0,-.173E-5,0
GPS BIIF-10 (PRN 08),2015-033A,2026-07-23T02:52:57.859968,2.00554565,.01155102,53.9555,265.6030,30.2978,330.4370,0,U,40730,999,8071,0,-.1E-6,0
BEIDOU-3S M2S (C58),2015-037A,2026-07-23T07:10:35.687424,1.86232067,.00096549,54.8364,300.8017,256.7100,103.2175,0,U,40748,999,7479,0,-.94E-6,0
BEIDOU-3S M1S (C57),2015-037B,2026-07-23T12:02:52.935648,1.86255010,.00025426,54.8328,300.7823,62.0343,298.0267,0,U,40749,999,7480,0,-.93E-6,0
GSAT0206 (GALILEO 10),2015-045B,2026-07-23T05:43:55.631712,1.70473658,.00020431,54.9376,220.6082,330.5183,29.5186,0,U,40890,999,6765,0,.75E-6,0
BEIDOU-3S IGSO-2S (C56),2015-053A,2026-07-23T03:09:20.778336,1.00251983,.00658964,49.1651,258.3502,193.8088,348.7982,0,U,40938,999,3971,0,-.85E-6,0
GPS BIIF-11 (PRN 10),2015-062A,2026-07-23T04:11:22.517088,2.00567136,.01131926,56.9840,29.4262,230.8504,128.1758,0,U,41019,999,7855,0,-.75E-6,0
GSAT-15 (GAGAN/PRN 139),2015-065A,2026-07-23T13:25:46.411680,1.00271188,.00036088,0.0970,262.9651,180.7182,152.5525,0,U,41028,999,3916,0,-.253E-5,0
GSAT0209 (GALILEO 12),2015-079A,2026-07-19T21:18:19.364832,1.70473671,.00046186,55.8457,100.3644,358.4074,1.6290,0,U,41174,999,6533,0,-.39E-6,0
GSAT0208 (GALILEO 11),2015-079B,2026-07-21T20:49:39.727488,1.70473606,.00042062,55.8455,100.3069,2.1198,357.9162,0,U,41175,999,6578,0,-.47E-6,0
IRNSS-1E,2016-003A,2026-07-21T00:43:29.481312,1.00275296,.0019282,33.3051,59.2585,176.3074,185.9195,0,U,41241,999,3842,0,-.317E-5,0
GPS BIIF-12 (PRN 32),2016-007A,2026-07-20T18:32:46.533984,2.00575241,.00966493,55.5446,88.1275,247.5642,111.4594,0,U,41328,999,7651,0,-.59E-6,0
COSMOS 2514 (751),2016-008A,2026-07-23T10:02:13.434720,2.13102761,.00125572,64.9975,311.7630,202.1470,157.8201,0,U,41330,999,8139,0,-.88E-6,0
BEIDOU-2 IGSO-6 (C13),2016-021A,2026-06-26T02:38:38.671584,1.00258926,.0057558,60.2385,37.9495,231.0163,137.2672,0,U,41434,999,3757,0,-.145E-5,0
IRNSS-1G,2016-027A,2026-07-23T13:00:26.747136,1.00265450,.00057792,5.2833,96.6329,13.8468,155.4780,0,U,41469,999,3754,0,-.335E-5,0
GSAT0211 (GALILEO 14),2016-030A,2026-07-20T05:33:31.703616,1.70473740,.00034438,55.0891,220.7852,318.9851,41.0285,0,U,41549,999,6323,0,.57E-6,0
GSAT0210 (GALILEO 13),2016-030B,2026-07-23T10:07:22.478016,1.70473980,.00047203,55.0870,220.6957,247.6947,112.3044,0,U,41550,999,6328,0,.76E-6,0
BEIDOU-2 G7 (C03),2016-037A,2026-07-23T15:13:17.215392,1.00269906,.00061962,1.8083,69.5627,2.5879,208.0803,0,U,41586,999,725,0,-.35E-5,0
EUTELSAT 117 WEST B (WAAS/PRN 131),2016-038B,2026-07-23T12:25:42.356640,1.00273398,.00001863,0.0064,119.4846,78.6023,172.5976,0,U,41589,999,3702,0,-.7E-7,0
GSAT0207 (GALILEO 15),2016-069A,2026-07-23T02:43:57.792576,1.70473642,.00043698,55.5193,100.0917,341.3874,18.6303,0,U,41859,999,6001,0,-.48E-6,0
GSAT0212 (GALILEO 16),2016-069B,2026-07-22T23:12:51.206976,1.70473873,.00043765,55.5169,100.0907,16.3980,343.6497,0,U,41860,999,6026,0,-.48E-6,0
GSAT0213 (GALILEO 17),2016-069C,2026-07-22T03:52:09.801984,1.70474392,.00038148,55.5184,100.1209,320.5981,39.4080,0,U,41861,999,6011,0,-.48E-6,0
GSAT0214 (GALILEO 18),2016-069D,2026-07-21T03:13:28.463808,1.70473784,.00031418,55.5164,100.1420,335.1519,24.8684,0,U,41862,999,6022,0,-.45E-6,0
SES-15 (WAAS/PRN 133),2017-026A,2026-07-23T09:42:58.165632,1.00273046,.00010243,0.0290,317.3038,183.9617,176.4570,0,U,42709,999,779,0,.64E-6,0
QZS-2 (QZSS/PRN 194),2017-028A,2026-07-23T09:57:21.719808,1.00274629,.0756665,39.3751,242.6194,269.7024,80.6651,0,U,42738,999,798,0,-.112E-5,0
QZS-3 (QZSS/PRN 199),2017-048A,2026-07-23T13:00:38.746368,1.00268797,.00028894,0.0590,201.1938,286.2354,136.0069,0,U,42917,999,3262,0,-.343E-5,0
COSMOS 2522 (752),2017-055A,2026-07-23T06:08:23.776800,2.13101933,.00108626,64.0809,190.6566,240.6109,119.2865,0,U,42939,999,6874,0,.9E-6,0
QZS-4 (QZSS/PRN 195),2017-062A,2026-07-21T06:10:27.954336,1.00289434,.07469394,40.0879,343.0509,268.6822,279.3148,0,U,42965,999,3214,0,-.358E-5,0
BEIDOU-3 M1 (C19),2017-069A,2026-07-20T23:04:14.085696,1.86231306,.0008832,56.7221,61.9715,327.7311,32.2769,0,U,43001,999,5923,0,-.79E-6,0
BEIDOU-3 M2 (C20),2017-069B,2026-07-22T12:15:49.300128,1.86231039,.00078145,56.7230,61.9567,0.0665,359.9968,0,U,43002,999,5925,0,-.77E-6,0
GSAT0215 (GALILEO 19),2017-079A,2026-07-21T14:58:16.716576,1.70474444,.00037652,55.0665,220.5584,269.3113,90.6885,0,U,43055,999,5357,0,.67E-6,0
